[
  {
    "OBJECT_NAME": "STARLINK-31570",
    "OBJECT_ID": "24057E",
    "EPOCH": "2025-11-11T04:53:06.770112",
    "MEAN_MOTION": 15.2758365,
    "ECCENTRICITY": 3.58e-05,
    "INCLINATION": 42.9994,
    "RA_OF_ASC_NODE": 136.6091,
    "ARG_OF_PERICENTER": 293.4714,
    "MEAN_ANOMALY": 66.61,
    "EPHEMERIS_TYPE": 0,
    "CLASSIFICATION_TYPE": "U",
    "NORAD_CAT_ID": 59324,
    "ELEMENT_SET_NO": 999,
    "REV_AT_EPOCH": 9171,
    "BSTAR": 8.8711e-05,
    "MEAN_MOTION_DOT": 2.18e-05,
    "MEAN_MOTION_DDOT": 0.0,
    "TLE_LINE1": "1 59324U 24057E   25315.20355058  .00002180  00000+0  88711-4 0  9994",
    "TLE_LINE2": "2 59324  42.9994 136.6091 0000358 293.4714  66.6100 15.27583650 91713",
    "COMMENT": "Grouped by shell and plane from TLE"
  },
  {
    "OBJECT_NAME": "STARLINK-31611",
    "OBJECT_ID": "24057F",
    "EPOCH": "2025-11-11T04:54:56.877408",
    "MEAN_MOTION": 15.27587076,
    "ECCENTRICITY": 8.2e-05,
    "INCLINATION": 42.9992,
    "RA_OF_ASC_NODE": 136.6214,
    "ARG_OF_PERICENTER": 282.5274,
    "MEAN_ANOMALY": 77.5486,
    "EPHEMERIS_TYPE": 0,
    "CLASSIFICATION_TYPE": "U",
    "NORAD_CAT_ID": 59325,
    "ELEMENT_SET_NO": 999,
    "REV_AT_EPOCH": 9171,
    "BSTAR": 7.6439e-05,
    "MEAN_MOTION_DOT": 1.843e-05,
    "MEAN_MOTION_DDOT": 0.0,
    "TLE_LINE1": "1 59325U 24057F   25315.20482497  .00001843  00000+0  76439-4 0  9992",
    "TLE_LINE2": "2 59325  42.9992 136.6214 0000820 282.5274  77.5486 15.27587076 91717",
    "COMMENT": "Grouped by shell and plane from TLE"
  },
  {
    "OBJECT_NAME": "STARLINK-31599",
    "OBJECT_ID": "24057H",
    "EPOCH": "2025-11-11T05:20:38.849568",
    "MEAN_MOTION": 15.27587128,
    "ECCENTRICITY": 4.67e-05,
    "INCLINATION": 43.0022,
    "RA_OF_ASC_NODE": 135.8952,
    "ARG_OF_PERICENTER": 239.1642,
    "MEAN_ANOMALY": 120.9164,
    "EPHEMERIS_TYPE": 0,
    "CLASSIFICATION_TYPE": "U",
    "NORAD_CAT_ID": 59327,
    "ELEMENT_SET_NO": 999,
    "REV_AT_EPOCH": 9172,
    "BSTAR": 2.6800000000000004e-05,
    "MEAN_MOTION_DOT": 4.76e-06,
    "MEAN_MOTION_DDOT": 0.0,
    "TLE_LINE1": "1 59327U 24057H   25315.22267187  .00000476  00000+0  26800-4 0  9991",
    "TLE_LINE2": "2 59327  43.0022 135.8952 0000467 239.1642 120.9164 15.27587128 91724",
    "COMMENT": "Grouped by shell and plane from TLE"
  },
  {
    "OBJECT_NAME": "STARLINK-31614",
    "OBJECT_ID": "24057J",
    "EPOCH": "2025-11-10T20:30:51.325344",
    "MEAN_MOTION": 15.27588922,
    "ECCENTRICITY": 0.0001404,
    "INCLINATION": 43.0018,
    "RA_OF_ASC_NODE": 138.2901,
    "ARG_OF_PERICENTER": 273.0502,
    "MEAN_ANOMALY": 87.0188,
    "EPHEMERIS_TYPE": 0,
    "CLASSIFICATION_TYPE": "U",
    "NORAD_CAT_ID": 59328,
    "ELEMENT_SET_NO": 999,
    "REV_AT_EPOCH": 9166,
    "BSTAR": 8.529200000000001e-05,
    "MEAN_MOTION_DOT": 2.086e-05,
    "MEAN_MOTION_DDOT": 0.0,
    "TLE_LINE1": "1 59328U 24057J   25314.85476071  .00002086  00000+0  85292-4 0  9993",
    "TLE_LINE2": "2 59328  43.0018 138.2901 0001404 273.0502  87.0188 15.27588922 91660",
    "COMMENT": "Grouped by shell and plane from TLE"
  },
  {
    "OBJECT_NAME": "STARLINK-31493",
    "OBJECT_ID": "24057K",
    "EPOCH": "2025-11-11T05:31:44.444064",
    "MEAN_MOTION": 15.27588623,
    "ECCENTRICITY": 0.0001371,
    "INCLINATION": 43.0015,
    "RA_OF_ASC_NODE": 135.9533,
    "ARG_OF_PERICENTER": 268.7136,
    "MEAN_ANOMALY": 91.3558,
    "EPHEMERIS_TYPE": 0,
    "CLASSIFICATION_TYPE": "U",
    "NORAD_CAT_ID": 59329,
    "ELEMENT_SET_NO": 999,
    "REV_AT_EPOCH": 9172,
    "BSTAR": 6.8419e-05,
    "MEAN_MOTION_DOT": 1.622e-05,
    "MEAN_MOTION_DDOT": 0.0,
    "TLE_LINE1": "1 59329U 24057K   25315.23037551  .00001622  00000+0  68419-4 0  9990",
    "TLE_LINE2": "2 59329  43.0015 135.9533 0001371 268.7136  91.3558 15.27588623 91724",
    "COMMENT": "Grouped by shell and plane from TLE"
  },
  {
    "OBJECT_NAME": "STARLINK-31634",
    "OBJECT_ID": "24057L",
    "EPOCH": "2025-11-10T22:17:58.818336",
    "MEAN_MOTION": 15.27575409,
    "ECCENTRICITY": 4.82e-05,
    "INCLINATION": 42.9987,
    "RA_OF_ASC_NODE": 137.9846,
    "ARG_OF_PERICENTER": 282.3784,
    "MEAN_ANOMALY": 77.7014,
    "EPHEMERIS_TYPE": 0,
    "CLASSIFICATION_TYPE": "U",
    "NORAD_CAT_ID": 59330,
    "ELEMENT_SET_NO": 999,
    "REV_AT_EPOCH": 9167,
    "BSTAR": 9.840600000000002e-06,
    "MEAN_MOTION_DOT": 9e-08,
    "MEAN_MOTION_DDOT": 0.0,
    "TLE_LINE1": "1 59330U 24057L   25314.92915299  .00000009  00000+0  98406-5 0  9999",
    "TLE_LINE2": "2 59330  42.9987 137.9846 0000482 282.3784  77.7014 15.27575409 91671",
    "COMMENT": "Grouped by shell and plane from TLE"
  },
  {
    "OBJECT_NAME": "STARLINK-31633",
    "OBJECT_ID": "24057M",
    "EPOCH": "2025-11-10T19:05:56.712192",
    "MEAN_MOTION": 15.27588457,
    "ECCENTRICITY": 0.0001691,
    "INCLINATION": 43.0047,
    "RA_OF_ASC_NODE": 138.7036,
    "ARG_OF_PERICENTER": 269.8256,
    "MEAN_ANOMALY": 90.2402,
    "EPHEMERIS_TYPE": 0,
    "CLASSIFICATION_TYPE": "U",
    "NORAD_CAT_ID": 59331,
    "ELEMENT_SET_NO": 999,
    "REV_AT_EPOCH": 9165,
    "BSTAR": 6.1256e-05,
    "MEAN_MOTION_DOT": 1.424e-05,
    "MEAN_MOTION_DDOT": 0.0,
    "TLE_LINE1": "1 59331U 24057M   25314.79579528  .00001424  00000+0  61256-4 0  9990",
    "TLE_LINE2": "2 59331  43.0047 138.7036 0001691 269.8256  90.2402 15.27588457 91654",
    "COMMENT": "Grouped by shell and plane from TLE"
  },
  {
    "OBJECT_NAME": "STARLINK-31573",
    "OBJECT_ID": "24057Q",
    "EPOCH": "2025-11-11T04:58:26.811264",
    "MEAN_MOTION": 15.27569796,
    "ECCENTRICITY": 0.0001253,
    "INCLINATION": 43.0027,
    "RA_OF_ASC_NODE": 135.771,
    "ARG_OF_PERICENTER": 273.4586,
    "MEAN_ANOMALY": 86.6122,
    "EPHEMERIS_TYPE": 0,
    "CLASSIFICATION_TYPE": "U",
    "NORAD_CAT_ID": 59334,
    "ELEMENT_SET_NO": 999,
    "REV_AT_EPOCH": 9172,
    "BSTAR": 0.00023582,
    "MEAN_MOTION_DOT": 6.231e-05,
    "MEAN_MOTION_DDOT": 0.0,
    "TLE_LINE1": "1 59334U 24057Q   25315.20725476  .00006231  00000+0  23582-3 0  9995",
    "TLE_LINE2": "2 59334  43.0027 135.7710 0001253 273.4586  86.6122 15.27569796 91723",
    "COMMENT": "Grouped by shell and plane from TLE"
  },
  {
    "OBJECT_NAME": "STARLINK-31588",
    "OBJECT_ID": "24057R",
    "EPOCH": "2025-11-11T05:07:40.925568",
    "MEAN_MOTION": 15.27577736,
    "ECCENTRICITY": 3.39e-05,
    "INCLINATION": 43.0009,
    "RA_OF_ASC_NODE": 135.8221,
    "ARG_OF_PERICENTER": 288.0839,
    "MEAN_ANOMALY": 71.9976,
    "EPHEMERIS_TYPE": 0,
    "CLASSIFICATION_TYPE": "U",
    "NORAD_CAT_ID": 59335,
    "ELEMENT_SET_NO": 999,
    "REV_AT_EPOCH": 9172,
    "BSTAR": 2.3267e-05,
    "MEAN_MOTION_DOT": 3.79e-06,
    "MEAN_MOTION_DDOT": 0.0,
    "TLE_LINE1": "1 59335U 24057R   25315.21366812  .00000379  00000+0  23267-4 0  9990",
    "TLE_LINE2": "2 59335  43.0009 135.8221 0000339 288.0839  71.9976 15.27577736 91726",
    "COMMENT": "Grouped by shell and plane from TLE"
  },
  {
    "OBJECT_NAME": "STARLINK-31596",
    "OBJECT_ID": "24057S",
    "EPOCH": "2025-11-11T05:13:14.445120",
    "MEAN_MOTION": 15.27579967,
    "ECCENTRICITY": 0.0001181,
    "INCLINATION": 43.0036,
    "RA_OF_ASC_NODE": 135.8513,
    "ARG_OF_PERICENTER": 269.3059,
    "MEAN_ANOMALY": 90.7657,
    "EPHEMERIS_TYPE": 0,
    "CLASSIFICATION_TYPE": "U",
    "NORAD_CAT_ID": 59336,
    "ELEMENT_SET_NO": 999,
    "REV_AT_EPOCH": 9172,
    "BSTAR": 2.2194e-05,
    "MEAN_MOTION_DOT": 3.49e-06,
    "MEAN_MOTION_DDOT": 0.0,
    "TLE_LINE1": "1 59336U 24057S   25315.21752830  .00000349  00000+0  22194-4 0  9995",
    "TLE_LINE2": "2 59336  43.0036 135.8513 0001181 269.3059  90.7657 15.27579967 91726",
    "COMMENT": "Grouped by shell and plane from TLE"
  },
  {
    "OBJECT_NAME": "STARLINK-31612",
    "OBJECT_ID": "24057T",
    "EPOCH": "2025-11-10T21:55:44.861088",
    "MEAN_MOTION": 15.27598039,
    "ECCENTRICITY": 9.95e-05,
    "INCLINATION": 43.0005,
    "RA_OF_ASC_NODE": 137.8674,
    "ARG_OF_PERICENTER": 246.134,
    "MEAN_ANOMALY": 113.9408,
    "EPHEMERIS_TYPE": 0,
    "CLASSIFICATION_TYPE": "U",
    "NORAD_CAT_ID": 59337,
    "ELEMENT_SET_NO": 999,
    "REV_AT_EPOCH": 9167,
    "BSTAR": 0.00011029,
    "MEAN_MOTION_DOT": 2.776e-05,
    "MEAN_MOTION_DDOT": 0.0,
    "TLE_LINE1": "1 59337U 24057T   25314.91371367  .00002776  00000+0  11029-3 0  9994",
    "TLE_LINE2": "2 59337  43.0005 137.8674 0000995 246.1340 113.9408 15.27598039 91678",
    "COMMENT": "Grouped by shell and plane from TLE"
  },
  {
    "OBJECT_NAME": "STARLINK-31550",
    "OBJECT_ID": "24057U",
    "EPOCH": "2025-11-11T04:49:24.682368",
    "MEAN_MOTION": 15.27567777,
    "ECCENTRICITY": 0.0001309,
    "INCLINATION": 43.001,
    "RA_OF_ASC_NODE": 136.5873,
    "ARG_OF_PERICENTER": 277.2995,
    "MEAN_ANOMALY": 82.7707,
    "EPHEMERIS_TYPE": 0,
    "CLASSIFICATION_TYPE": "U",
    "NORAD_CAT_ID": 59338,
    "ELEMENT_SET_NO": 999,
    "REV_AT_EPOCH": 9171,
    "BSTAR": 0.0,
    "MEAN_MOTION_DOT": -2.267e-05,
    "MEAN_MOTION_DDOT": 0.0,
    "TLE_LINE1": "1 59338U 24057U   25315.20098012 -.00002267  00000+0 -72922-4 0  9998",
    "TLE_LINE2": "2 59338  43.0010 136.5873 0001309 277.2995  82.7707 15.27567777 91718",
    "COMMENT": "Grouped by shell and plane from TLE"
  },
  {
    "OBJECT_NAME": "STARLINK-31473",
    "OBJECT_ID": "24057V",
    "EPOCH": "2025-11-11T05:29:55.213728",
    "MEAN_MOTION": 15.27576842,
    "ECCENTRICITY": 0.0001998,
    "INCLINATION": 43.0044,
    "RA_OF_ASC_NODE": 135.9434,
    "ARG_OF_PERICENTER": 269.1038,
    "MEAN_ANOMALY": 90.9585,
    "EPHEMERIS_TYPE": 0,
    "CLASSIFICATION_TYPE": "U",
    "NORAD_CAT_ID": 59339,
    "ELEMENT_SET_NO": 999,
    "REV_AT_EPOCH": 9172,
    "BSTAR": 0.00022746,
    "MEAN_MOTION_DOT": 6.001e-05,
    "MEAN_MOTION_DDOT": 0.0,
    "TLE_LINE1": "1 59339U 24057V   25315.22911127  .00006001  00000+0  22746-3 0  9998",
    "TLE_LINE2": "2 59339  43.0044 135.9434 0001998 269.1038  90.9585 15.27576842 91723",
    "COMMENT": "Grouped by shell and plane from TLE"
  }
]